{"spkid": "50749089", "covariance": {"epoch": "2457507.5", "labels": ["e", "q", "tp", "node", "peri", "i"], "elements": [{"units": null, "value": ".3162018583064983", "title": "eccentricity", "name": "e", "sigma": 5.95978260207172e-08, "label": "e"}, {"label": "q", "title": "perihelion distance", "value": ".9120004851815606", "units": "au", "sigma": 7.4881507089413e-08, "name": "q"}, {"units": "TDB", "value": "2457570.320620179682", "title": "time of perihelion passage", "sigma": 8.34767719859924e-06, "name": "tp", "label": "tp"}, {"label": "node", "name": "om", "sigma": 1.99040036128009e-05, "title": "longitude of the ascending node", "value": "64.12852516774771", "units": "deg"}, {"sigma": 2.90667566424065e-05, "name": "w", "title": "argument of perihelion", "value": "226.0575244230775", "units": "deg", "label": "peri"}, {"sigma": 4.1240666662778e-06, "name": "i", "title": "inclination", "value": "3.741488412901431", "units": "deg", "label": "i"}], "data": [["3.551900866395675E-15", "-4.320494104890307E-15", "4.493868241064979E-13", "-3.611873108239155E-13", "1.20336592815361E-12", "7.165106239861342E-14"], ["-4.320494104890307E-15", "5.607240103981814E-15", "-6.094036893278708E-13", "5.127381935695232E-13", "-1.628132204399629E-12", "-9.874252544228135E-14"], ["4.493868241064979E-13", "-6.094036893278708E-13", "6.968371461201365E-11", "-6.452691068759712E-11", "1.891320296787204E-10", "1.134007915022443E-11"], ["-3.611873108239155E-13", "5.127381935695232E-13", "-6.452691068759712E-11", "3.96169359818393E-10", "-5.078206763276948E-10", "-7.620532046590843E-11"], ["1.20336592815361E-12", "-1.628132204399629E-12", "1.891320296787204E-10", "-5.078206763276948E-10", "8.448763417088817E-10", "9.66629812310504E-11"], ["7.165106239861342E-14", "-9.874252544228135E-14", "1.134007915022443E-11", "-7.620532046590843E-11", "9.66629812310504E-11", "1.700792586790369E-11"]]}, "elements": [{"label": "e", "title": "eccentricity", "value": ".3166390684780435", "units": null, "name": "e", "sigma": "6.1078E-8"}, {"value": "1.335866256342935", "title": "semi-major axis", "units": "au", "name": "a", "sigma": "2.6556E-8", "label": "a"}, {"label": "q", "value": ".9128788093232566", "title": "perihelion distance", "units": "au", "name": "q", "sigma": "7.3938E-8"}, {"label": "i", "sigma": "4.2109E-6", "name": "i", "value": "3.858090400907287", "title": "inclination; angle with respect to x-y ecliptic plane", "units": "deg"}, {"name": "om", "sigma": "1.9247E-5", "units": "deg", "value": "63.79019806453533", "title": "longitude of the ascending node", "label": "node"}, {"units": "deg", "value": "226.1040915350984", "title": "argument of perihelion", "sigma": "2.7663E-5", "name": "w", "label": "peri"}, {"units": "deg", "title": "mean anomaly", "value": "158.4290406425567", "sigma": "7.2973E-5", "name": "ma", "label": "M"}, {"label": "tp", "units": "TDB", "value": "2460952.315195169860", "title": "time of perihelion passage", "name": "tp", "sigma": ".00010693"}, {"label": "period", "value": "563.9529809464137", "title": "sidereal orbital period", "units": "d", "name": "per", "sigma": "1.6816E-5"}, {"sigma": "1.9035E-8", "name": "n", "value": ".6383510898299638", "title": "mean motion", "units": "deg/d", "label": "n"}, {"sigma": "3.4964E-8", "name": "ad", "title": "aphelion distance", "value": "1.758853703362613", "units": "au", "label": "Q"}], "epoch": "2461200.5"}